ONEWEB-0120             
1 47266U 20100J   24246.94380661  .00000448  00000+0  12095-2 0  9997
2 47266  87.8902 120.5842 0001953  80.2129 279.9220 13.12441788179178
ONEWEB-0121             
1 47267U 20100K   24247.16102474  .00000036  00000+0  64908-4 0  9992
2 47267  87.8897 120.5278 0001645  80.5377 279.5938 13.12443241179113
ONEWEB-0122             
1 47268U 20100L   24246.92730538  .00000007  00000+0 -15959-4 0  9995
2 47268  87.8897 120.5792 0001783  83.3059 276.8273 13.12443445178999
ONEWEB-0123             
1 47269U 20100M   24246.69386407 -.00000144  00000+0 -43433-3 0  9992
2 47269  87.8900 120.6421 0001867  77.2857 282.8480 13.12443879179108
ONEWEB-0124             
1 47270U 20100N   24247.13993058 -.00000303  00000+0 -87870-3 0  9990
2 47270  87.8902 120.5502 0001479  78.2318 281.8976 13.12442913179043
ONEWEB-0125             
1 47271U 20100P   24247.11722441  .00000288  00000+0  76423-3 0  9997
2 47271  87.8902 120.5149 0001796  67.4079 292.7240 13.12440201179107
ONEWEB-0127             
1 47273U 20100R   24246.95178017  .00000528  00000+0  14316-2 0  9993
2 47273  87.8900 120.5818 0001869  81.9176 278.2165 13.12441681179175
